<?xml version='1.0' encoding='utf-8'?>
<q:quakeml xmlns="http://quakeml.org/xmlns/bed/1.2" xmlns:q="http://quakeml.org/xmlns/quakeml/1.2">
  <eventParameters publicID="smi:local/1bb73b7b-2f8b-46af-bf62-6e62a1c3d312">
    <event publicID="smi:org.gfz-potsdam.de/geofon/gfz2018myif">
      <preferredOriginID>smi:org.gfz-potsdam.de/geofon/Origin#201807040148.1530669006.000000</preferredOriginID>
      <preferredMagnitudeID>smi:org.gfz-potsdam.de/geofon/Origin#201807040148.1530669006.000000/netMag/M</preferredMagnitudeID>
      <description>
        <text>Hula-Kinneret</text>
        <type>region name</type>
      </description>
      <creationInfo>
        <agencyID>GTL</agencyID>
        <author>scevent@ws-fdsn</author>
        <creationTime>2018-10-15T06:33:41.701353Z</creationTime>
      </creationInfo>
      <origin publicID="smi:org.gfz-potsdam.de/geofon/Origin#201807040148.1530669006.000000">
        <time>
          <value>2018-07-04T01:50:06.667000Z</value>
          <uncertainty>0.0</uncertainty>
        </time>
        <latitude>
          <value>32.84780502</value>
          <uncertainty>0.00187088618</uncertainty>
        </latitude>
        <longitude>
          <value>35.58332062</value>
          <uncertainty>0.0009985296773</uncertainty>
        </longitude>
        <depth>
          <value>1000.0</value>
          <uncertainty>0.0</uncertainty>
        </depth>
        <methodID>smi:org.gfz-potsdam.de/geofon/Method#ISN.loc</methodID>
        <earthModelID>smi:org.gfz-potsdam.de/geofon/Model#ISN.2004</earthModelID>
        <quality>
          <associatedPhaseCount>42</associatedPhaseCount>
          <usedPhaseCount>42</usedPhaseCount>
          <associatedStationCount>22</associatedStationCount>
          <usedStationCount>22</usedStationCount>
        </quality>
        <evaluationMode>automatic</evaluationMode>
        <evaluationStatus>confirmed</evaluationStatus>
        <creationInfo>
          <agencyID>GII</agencyID>
          <author>GTL</author>
          <creationTime>2018-07-04T01:48:00.000000Z</creationTime>
        </creationInfo>
        <arrival publicID="smi:org.gfz-potsdam.de/geofon/20180704.015015.701004-IS.NATI..SHZ_Origin#201807040148.1530669006.000000">
          <pickID>smi:org.gfz-potsdam.de/geofon/20180704.015015.701004-IS.NATI..SHZ</pickID>
          <phase>P</phase>
          <azimuth>17.24623489</azimuth>
          <distance>0.4329719209</distance>
          <timeResidual>-0.2800000012</timeResidual>
          <timeWeight>1.0</timeWeight>
        </arrival>
        <arrival publicID="smi:org.gfz-potsdam.de/geofon/20180704.015129.856002-IS.KRMI..SHZ_Origin#201807040148.1530669006.000000">
          <pickID>smi:org.gfz-potsdam.de/geofon/20180704.015129.856002-IS.KRMI..SHZ</pickID>
          <phase>S</phase>
          <azimuth>195.2927551</azimuth>
          <distance>2.821104332</distance>
          <timeResidual>1.072000027</timeResidual>
          <timeWeight>1.0</timeWeight>
        </arrival>
        <arrival publicID="smi:org.gfz-potsdam.de/geofon/20180704.015053.179-IS.KRMI..SHZ_Origin#201807040148.1530669006.000000">
          <pickID>smi:org.gfz-potsdam.de/geofon/20180704.015053.179-IS.KRMI..SHZ</pickID>
          <phase>P</phase>
          <azimuth>195.2927551</azimuth>
          <distance>2.821104332</distance>
          <timeResidual>0.1809999943</timeResidual>
          <timeWeight>1.0</timeWeight>
        </arrival>
        <arrival publicID="smi:org.gfz-potsdam.de/geofon/20180704.015116.552001-IS.ZFRI..SHZ_Origin#201807040148.1530669006.000000">
          <pickID>smi:org.gfz-potsdam.de/geofon/20180704.015116.552001-IS.ZFRI..SHZ</pickID>
          <phase>S</phase>
          <azimuth>188.7229614</azimuth>
          <distance>2.303929665</distance>
          <timeResidual>0.8560000062</timeResidual>
          <timeWeight>1.0</timeWeight>
        </arrival>
        <arrival publicID="smi:org.gfz-potsdam.de/geofon/20180704.015045.830001-IS.ZFRI..SHZ_Origin#201807040148.1530669006.000000">
          <pickID>smi:org.gfz-potsdam.de/geofon/20180704.015045.830001-IS.ZFRI..SHZ</pickID>
          <phase>P</phase>
          <azimuth>188.7229614</azimuth>
          <distance>2.303929665</distance>
          <timeResidual>0.1560000032</timeResidual>
          <timeWeight>1.0</timeWeight>
        </arrival>
        <arrival publicID="smi:org.gfz-potsdam.de/geofon/20180704.015055.968002-IS.YTIR..SHZ_Origin#201807040148.1530669006.000000">
          <pickID>smi:org.gfz-potsdam.de/geofon/20180704.015055.968002-IS.YTIR..SHZ</pickID>
          <phase>S</phase>
          <azimuth>195.1265717</azimuth>
          <distance>1.534505396</distance>
          <timeResidual>-0.8379999995</timeResidual>
          <timeWeight>1.0</timeWeight>
        </arrival>
        <arrival publicID="smi:org.gfz-potsdam.de/geofon/20180704.015034.953002-IS.YTIR..SHZ_Origin#201807040148.1530669006.000000">
          <pickID>smi:org.gfz-potsdam.de/geofon/20180704.015034.953002-IS.YTIR..SHZ</pickID>
          <phase>P</phase>
          <azimuth>195.1265717</azimuth>
          <distance>1.534505396</distance>
          <timeResidual>-0.1439999938</timeResidual>
          <timeWeight>1.0</timeWeight>
        </arrival>
        <arrival publicID="smi:org.gfz-potsdam.de/geofon/20180704.015033.125-IS.SLTI..SHZ_Origin#201807040148.1530669006.000000">
          <pickID>smi:org.gfz-potsdam.de/geofon/20180704.015033.125-IS.SLTI..SHZ</pickID>
          <phase>S</phase>
          <azimuth>217.2628632</azimuth>
          <distance>0.7597025897</distance>
          <timeResidual>-0.4099999964</timeResidual>
          <timeWeight>1.0</timeWeight>
        </arrival>
        <arrival publicID="smi:org.gfz-potsdam.de/geofon/20180704.015021.828002-IS.SLTI..SHZ_Origin#201807040148.1530669006.000000">
          <pickID>smi:org.gfz-potsdam.de/geofon/20180704.015021.828002-IS.SLTI..SHZ</pickID>
          <phase>P</phase>
          <azimuth>217.2628632</azimuth>
          <distance>0.7597025897</distance>
          <timeResidual>-0.1700000018</timeResidual>
          <timeWeight>1.0</timeWeight>
        </arrival>
        <arrival publicID="smi:org.gfz-potsdam.de/geofon/20180704.015122.822006-IS.PRNI..SHZ_Origin#201807040148.1530669006.000000">
          <pickID>smi:org.gfz-potsdam.de/geofon/20180704.015122.822006-IS.PRNI..SHZ</pickID>
          <phase>S</phase>
          <azimuth>191.3670959</azimuth>
          <distance>2.538663083</distance>
          <timeResidual>1.110000014</timeResidual>
          <timeWeight>1.0</timeWeight>
        </arrival>
        <arrival publicID="smi:org.gfz-potsdam.de/geofon/20180704.015049.436004-IS.PRNI..SHZ_Origin#201807040148.1530669006.000000">
          <pickID>smi:org.gfz-potsdam.de/geofon/20180704.015049.436004-IS.PRNI..SHZ</pickID>
          <phase>P</phase>
          <azimuth>191.3670959</azimuth>
          <distance>2.538663083</distance>
          <timeResidual>0.3959999979</timeResidual>
          <timeWeight>1.0</timeWeight>
        </arrival>
        <arrival publicID="smi:org.gfz-potsdam.de/geofon/20180704.015026.679-IS.OFRI..SHZ_Origin#201807040148.1530669006.000000">
          <pickID>smi:org.gfz-potsdam.de/geofon/20180704.015026.679-IS.OFRI..SHZ</pickID>
          <phase>S</phase>
          <azimuth>246.0286102</azimuth>
          <distance>0.5519565639</distance>
          <timeResidual>-0.4149999917</timeResidual>
          <timeWeight>1.0</timeWeight>
        </arrival>
        <arrival publicID="smi:org.gfz-potsdam.de/geofon/20180704.015017.973007-IS.OFRI..SHZ_Origin#201807040148.1530669006.000000">
          <pickID>smi:org.gfz-potsdam.de/geofon/20180704.015017.973007-IS.OFRI..SHZ</pickID>
          <phase>P</phase>
          <azimuth>246.0286102</azimuth>
          <distance>0.5519565639</distance>
          <timeResidual>-0.2930000126</timeResidual>
          <timeWeight>1.0</timeWeight>
        </arrival>
        <arrival publicID="smi:org.gfz-potsdam.de/geofon/20180704.015022.669006-IS.NATI..SHZ_Origin#201807040148.1530669006.000000">
          <pickID>smi:org.gfz-potsdam.de/geofon/20180704.015022.669006-IS.NATI..SHZ</pickID>
          <phase>S</phase>
          <azimuth>17.24623489</azimuth>
          <distance>0.4329719209</distance>
          <timeResidual>-0.6019999981</timeResidual>
          <timeWeight>1.0</timeWeight>
        </arrival>
        <arrival publicID="smi:org.gfz-potsdam.de/geofon/20180704.015055.214004-IS.MSBI..SHZ_Origin#201807040148.1530669006.000000">
          <pickID>smi:org.gfz-potsdam.de/geofon/20180704.015055.214004-IS.MSBI..SHZ</pickID>
          <phase>S</phase>
          <azimuth>187.1818695</azimuth>
          <distance>1.543887665</distance>
          <timeResidual>-1.422999978</timeResidual>
          <timeWeight>1.0</timeWeight>
        </arrival>
        <arrival publicID="smi:org.gfz-potsdam.de/geofon/20180704.015034.983001-IS.MSBI..SHZ_Origin#201807040148.1530669006.000000">
          <pickID>smi:org.gfz-potsdam.de/geofon/20180704.015034.983001-IS.MSBI..SHZ</pickID>
          <phase>P</phase>
          <azimuth>187.1818695</azimuth>
          <distance>1.543887665</distance>
          <timeResidual>-0.02300000004</timeResidual>
          <timeWeight>1.0</timeWeight>
        </arrival>
        <arrival publicID="smi:org.gfz-potsdam.de/geofon/20180704.015023.082-IS.MMLI..SHZ_Origin#201807040148.1530669006.000000">
          <pickID>smi:org.gfz-potsdam.de/geofon/20180704.015023.082-IS.MMLI..SHZ</pickID>
          <phase>S</phase>
          <azimuth>199.5231628</azimuth>
          <distance>0.4323522763</distance>
          <timeResidual>-0.04500000179</timeResidual>
          <timeWeight>1.0</timeWeight>
        </arrival>
        <arrival publicID="smi:org.gfz-potsdam.de/geofon/20180704.015015.878005-IS.MMLI..SHZ_Origin#201807040148.1530669006.000000">
          <pickID>smi:org.gfz-potsdam.de/geofon/20180704.015015.878005-IS.MMLI..SHZ</pickID>
          <phase>P</phase>
          <azimuth>199.5231628</azimuth>
          <distance>0.4323522763</distance>
          <timeResidual>-0.02500000037</timeResidual>
          <timeWeight>1.0</timeWeight>
        </arrival>
        <arrival publicID="smi:org.gfz-potsdam.de/geofon/20180704.015015.552001-IS.MMA0B..SHZ_Origin#201807040148.1530669006.000000">
          <pickID>smi:org.gfz-potsdam.de/geofon/20180704.015015.552001-IS.MMA0B..SHZ</pickID>
          <phase>S</phase>
          <azimuth>317.8164062</azimuth>
          <distance>0.2257466478</distance>
          <timeResidual>-0.2479999959</timeResidual>
          <timeWeight>1.0</timeWeight>
        </arrival>
        <arrival publicID="smi:org.gfz-potsdam.de/geofon/20180704.015011.908004-IS.MMA0B..SHZ_Origin#201807040148.1530669006.000000">
          <pickID>smi:org.gfz-potsdam.de/geofon/20180704.015011.908004-IS.MMA0B..SHZ</pickID>
          <phase>P</phase>
          <azimuth>317.8164062</azimuth>
          <distance>0.2257466478</distance>
          <timeResidual>0.1280000061</timeResidual>
          <timeWeight>1.0</timeWeight>
        </arrival>
        <arrival publicID="smi:org.gfz-potsdam.de/geofon/20180704.015056.811004-IS.MBRI..SHZ_Origin#201807040148.1530669006.000000">
          <pickID>smi:org.gfz-potsdam.de/geofon/20180704.015056.811004-IS.MBRI..SHZ</pickID>
          <phase>P</phase>
          <azimuth>190.8099365</azimuth>
          <distance>3.101112861</distance>
          <timeResidual>-0.1720000058</timeResidual>
          <timeWeight>1.0</timeWeight>
        </arrival>
        <arrival publicID="smi:org.gfz-potsdam.de/geofon/20180704.015114.955001-IS.KZIT..SHZ_Origin#201807040148.1530669006.000000">
          <pickID>smi:org.gfz-potsdam.de/geofon/20180704.015114.955001-IS.KZIT..SHZ</pickID>
          <phase>S</phase>
          <azimuth>207.839447</azimuth>
          <distance>2.184137789</distance>
          <timeResidual>2.151000023</timeResidual>
          <timeWeight>1.0</timeWeight>
        </arrival>
        <arrival publicID="smi:org.gfz-potsdam.de/geofon/20180704.015045.173004-IS.KZIT..SHZ_Origin#201807040148.1530669006.000000">
          <pickID>smi:org.gfz-potsdam.de/geofon/20180704.015045.173004-IS.KZIT..SHZ</pickID>
          <phase>P</phase>
          <azimuth>207.839447</azimuth>
          <distance>2.184137789</distance>
          <timeResidual>1.118999958</timeResidual>
          <timeWeight>1.0</timeWeight>
        </arrival>
        <arrival publicID="smi:org.gfz-potsdam.de/geofon/20180704.015015.804-IS.KSHI..SHZ_Origin#201807040148.1530669006.000000">
          <pickID>smi:org.gfz-potsdam.de/geofon/20180704.015015.804-IS.KSHI..SHZ</pickID>
          <phase>S</phase>
          <azimuth>55.11379623</azimuth>
          <distance>0.2340427016</distance>
          <timeResidual>-0.2610000074</timeResidual>
          <timeWeight>1.0</timeWeight>
        </arrival>
        <arrival publicID="smi:org.gfz-potsdam.de/geofon/20180704.015012.496002-IS.KSHI..SHZ_Origin#201807040148.1530669006.000000">
          <pickID>smi:org.gfz-potsdam.de/geofon/20180704.015012.496002-IS.KSHI..SHZ</pickID>
          <phase>P</phase>
          <azimuth>55.11379623</azimuth>
          <distance>0.2340427016</distance>
          <timeResidual>0.5659999847</timeResidual>
          <timeWeight>1.0</timeWeight>
        </arrival>
        <arrival publicID="smi:org.gfz-potsdam.de/geofon/20180704.015128.992004-IS.HRFI..SHZ_Origin#201807040148.1530669006.000000">
          <pickID>smi:org.gfz-potsdam.de/geofon/20180704.015128.992004-IS.HRFI..SHZ</pickID>
          <phase>S</phase>
          <azimuth>189.6022797</azimuth>
          <distance>2.843905826</distance>
          <timeResidual>-0.349999994</timeResidual>
          <timeWeight>1.0</timeWeight>
        </arrival>
        <arrival publicID="smi:org.gfz-potsdam.de/geofon/20180704.015053.240005-IS.HRFI..SHZ_Origin#201807040148.1530669006.000000">
          <pickID>smi:org.gfz-potsdam.de/geofon/20180704.015053.240005-IS.HRFI..SHZ</pickID>
          <phase>P</phase>
          <azimuth>189.6022797</azimuth>
          <distance>2.843905826</distance>
          <timeResidual>-0.0700000003</timeResidual>
          <timeWeight>1.0</timeWeight>
        </arrival>
        <arrival publicID="smi:org.gfz-potsdam.de/geofon/20180704.015022.669006-IS.HNTI..SHZ_Origin#201807040148.1530669006.000000">
          <pickID>smi:org.gfz-potsdam.de/geofon/20180704.015022.669006-IS.HNTI..SHZ</pickID>
          <phase>S</phase>
          <azimuth>304.3632507</azimuth>
          <distance>0.4165732033</distance>
          <timeResidual>0.1620000005</timeResidual>
          <timeWeight>1.0</timeWeight>
        </arrival>
        <arrival publicID="smi:org.gfz-potsdam.de/geofon/20180704.015015.468002-IS.HNTI..SHZ_Origin#201807040148.1530669006.000000">
          <pickID>smi:org.gfz-potsdam.de/geofon/20180704.015015.468002-IS.HNTI..SHZ</pickID>
          <phase>P</phase>
          <azimuth>304.3632507</azimuth>
          <distance>0.4165732033</distance>
          <timeResidual>-0.0869999975</timeResidual>
          <timeWeight>1.0</timeWeight>
        </arrival>
        <arrival publicID="smi:org.gfz-potsdam.de/geofon/20180704.015027.759002-IS.HMDT..SHZ_Origin#201807040148.1530669006.000000">
          <pickID>smi:org.gfz-potsdam.de/geofon/20180704.015027.759002-IS.HMDT..SHZ</pickID>
          <phase>S</phase>
          <azimuth>184.6806793</azimuth>
          <distance>0.5957149333</distance>
          <timeResidual>-0.6830000281</timeResidual>
          <timeWeight>1.0</timeWeight>
        </arrival>
        <arrival publicID="smi:org.gfz-potsdam.de/geofon/20180704.015018.897003-IS.HMDT..SHZ_Origin#201807040148.1530669006.000000">
          <pickID>smi:org.gfz-potsdam.de/geofon/20180704.015018.897003-IS.HMDT..SHZ</pickID>
          <phase>P</phase>
          <azimuth>184.6806793</azimuth>
          <distance>0.5957149333</distance>
          <timeResidual>-0.1599999964</timeResidual>
          <timeWeight>1.0</timeWeight>
        </arrival>
        <arrival publicID="smi:org.gfz-potsdam.de/geofon/20180704.015056.720001-IS.GHAJ..SHZ_Origin#201807040148.1530669006.000000">
          <pickID>smi:org.gfz-potsdam.de/geofon/20180704.015056.720001-IS.GHAJ..SHZ</pickID>
          <phase>S</phase>
          <azimuth>180.5357513</azimuth>
          <distance>1.541212881</distance>
          <timeResidual>0.07699999958</timeResidual>
          <timeWeight>1.0</timeWeight>
        </arrival>
        <arrival publicID="smi:org.gfz-potsdam.de/geofon/20180704.015035.445007-IS.GHAJ..SHZ_Origin#201807040148.1530669006.000000">
          <pickID>smi:org.gfz-potsdam.de/geofon/20180704.015035.445007-IS.GHAJ..SHZ</pickID>
          <phase>P</phase>
          <azimuth>180.5357513</azimuth>
          <distance>1.541212881</distance>
          <timeResidual>0.4359999895</timeResidual>
          <timeWeight>1.0</timeWeight>
        </arrival>
        <arrival publicID="smi:org.gfz-potsdam.de/geofon/20180704.015020.973007-IS.GEM..SHZ_Origin#201807040148.1530669006.000000">
          <pickID>smi:org.gfz-potsdam.de/geofon/20180704.015020.973007-IS.GEM..SHZ</pickID>
          <phase>S</phase>
          <azimuth>10.47539806</azimuth>
          <distance>0.3683175703</distance>
          <timeResidual>0.2169999927</timeResidual>
          <timeWeight>1.0</timeWeight>
        </arrival>
        <arrival publicID="smi:org.gfz-potsdam.de/geofon/20180704.015014.608001-IS.GEM..SHZ_Origin#201807040148.1530669006.000000">
          <pickID>smi:org.gfz-potsdam.de/geofon/20180704.015014.608001-IS.GEM..SHZ</pickID>
          <phase>P</phase>
          <azimuth>10.47539806</azimuth>
          <distance>0.3683175703</distance>
          <timeResidual>0.03599999845</timeResidual>
          <timeWeight>1.0</timeWeight>
        </arrival>
        <arrival publicID="smi:org.gfz-potsdam.de/geofon/20180704.015058.166-IS.EIL..SHZ_Origin#201807040148.1530669006.000000">
          <pickID>smi:org.gfz-potsdam.de/geofon/20180704.015058.166-IS.EIL..SHZ</pickID>
          <phase>P</phase>
          <azimuth>189.8535461</azimuth>
          <distance>3.215346609</distance>
          <timeResidual>-0.2910000086</timeResidual>
          <timeWeight>1.0</timeWeight>
        </arrival>
        <arrival publicID="smi:org.gfz-potsdam.de/geofon/20180704.015048.735-IS.DSI..SHZ_Origin#201807040148.1530669006.000000">
          <pickID>smi:org.gfz-potsdam.de/geofon/20180704.015048.735-IS.DSI..SHZ</pickID>
          <phase>S</phase>
          <azimuth>187.3793182</azimuth>
          <distance>1.263721101</distance>
          <timeResidual>-0.2960000038</timeResidual>
          <timeWeight>1.0</timeWeight>
        </arrival>
        <arrival publicID="smi:org.gfz-potsdam.de/geofon/20180704.015030.501007-IS.DSI..SHZ_Origin#201807040148.1530669006.000000">
          <pickID>smi:org.gfz-potsdam.de/geofon/20180704.015030.501007-IS.DSI..SHZ</pickID>
          <phase>P</phase>
          <azimuth>187.3793182</azimuth>
          <distance>1.263721101</distance>
          <timeResidual>-0.4550000131</timeResidual>
          <timeWeight>1.0</timeWeight>
        </arrival>
        <arrival publicID="smi:org.gfz-potsdam.de/geofon/20180704.015020.509002-IS.BLGI..SHZ_Origin#201807040148.1530669006.000000">
          <pickID>smi:org.gfz-potsdam.de/geofon/20180704.015020.509002-IS.BLGI..SHZ</pickID>
          <phase>S</phase>
          <azimuth>251.0851135</azimuth>
          <distance>0.3491764481</distance>
          <timeResidual>0.4480000138</timeResidual>
          <timeWeight>1.0</timeWeight>
        </arrival>
        <arrival publicID="smi:org.gfz-potsdam.de/geofon/20180704.015014.313003-IS.BLGI..SHZ_Origin#201807040148.1530669006.000000">
          <pickID>smi:org.gfz-potsdam.de/geofon/20180704.015014.313003-IS.BLGI..SHZ</pickID>
          <phase>P</phase>
          <azimuth>251.0851135</azimuth>
          <distance>0.3491764481</distance>
          <timeResidual>0.1319999993</timeResidual>
          <timeWeight>1.0</timeWeight>
        </arrival>
